NOAA 15                 
1 25338U 98030A   22284.53168540  .00000222  00000+0  11090-3 0  9990
2 25338  98.6359 312.5060 0009620 324.0849  35.9683 14.26181030269813
DMSP 5D-3 F15 (USA 147) 
1 25991U 99067A   22283.82559019  .00000282  00000+0  16481-3 0  9997
2 25991  99.0620 277.4222 0009400 217.6286 240.4096 14.16580731180106
METEOSAT-8 (MSG-1)      
1 27509U 02040B   22279.50777774  .00000123  00000+0  00000+0 0  9999
2 27509   8.2420  50.0246 0002766 135.5667  53.8101  1.00275647 73721
DMSP 5D-3 F16 (USA 172) 
1 28054U 03048A   22284.47502993  .00000212  00000+0  13607-3 0  9995
2 28054  98.9987 275.9343 0007366 357.7455 154.5542 14.13692645979419
NOAA 18                 
1 28654U 05018A   22284.42607425  .00000276  00000+0  17255-3 0  9994
2 28654  98.9391 354.7154 0014210   8.0403 352.0994 14.12788399896443
METEOSAT-9 (MSG-2)      
1 28912U 05049B   22283.72307729  .00000121  00000+0  00000+0 0  9996
2 28912   6.2761  65.5184 0002554 186.7416  73.1581  1.00278181 61543
EWS-G1 (GOES 13)        
1 29155U 06018A   22283.83799333  .00000029  00000+0  00000+0 0  9998
2 29155   0.8695  95.1169 0006543 122.5887 164.9138  1.00269887 29884
DMSP 5D-3 F17 (USA 191) 
1 29522U 06050A   22284.47031061  .00000209  00000+0  13278-3 0  9995
2 29522  98.7658 297.3459 0008838 293.6558  66.3687 14.14122715822308
FENGYUN 3A              
1 32958U 08026A   22284.41143806  .00000203  00000+0  11786-3 0  9998
2 32958  98.5174 242.3776 0009735  52.3590 307.8468 14.18747784744778
FENGYUN 2E              
1 33463U 08066A   22284.61892313 -.00000206  00000+0  00000+0 0  9997
2 33463   6.1604  64.5883 0000954  50.6459 214.3630  1.00271309 50602
NOAA 19                 
1 33591U 09005A   22284.51136457  .00000225  00000+0  14675-3 0  9999
2 33591  99.1375 321.0321 0013351 219.0132 141.0077 14.12620670704831
GOES 14                 
1 35491U 09033A   22283.62063309 -.00000103  00000+0  00000+0 0  9996
2 35491   0.3368 266.6593 0018173 309.1254 282.5100  1.00272998 48610
METEOR-M 1              
1 35865U 09049A   22284.46710171  .00000198  00000+0  10818-3 0  9992
2 35865  98.5433 251.2708 0001241 234.9305 125.1757 14.22365100678171
DMSP 5D-3 F18 (USA 210) 
1 35951U 09057A   22284.49043852  .00000282  00000+0  17233-3 0  9997
2 35951  98.7362 261.0874 0012078 113.4206 246.8238 14.13568075669502
GOES 15                 
1 36411U 10008A   22283.70684345  .00000046  00000+0  00000+0 0  9996
2 36411   0.2967 278.2337 0004235 256.7740 330.4489  1.00268038 46175
COMS 1                  
1 36744U 10032A   22284.54840331 -.00000350  00000+0  00000+0 0  9993
2 36744   1.3734  91.8921 0001055 118.4304 135.3817  1.00271480 45174
FENGYUN 3B              
1 37214U 10059A   22284.51899049  .00000064  00000+0  57364-4 0  9993
2 37214  99.0950 292.5661 0022693  30.3200 329.9284 14.14268350617366
SUOMI NPP               
1 37849U 11061A   22284.51343457  .00000144  00000+0  89049-4 0  9992
2 37849  98.7398 221.4865 0001025  79.6774  49.0019 14.19550364567653
FENGYUN 2F              
1 38049U 12002A   22284.54231330 -.00000361  00000+0  00000+0 0  9997
2 38049   4.0717  78.7407 0000579 345.9032 262.8672  1.00270459 39402
METEOSAT-10 (MSG-3)     
1 38552U 12035B   22284.30813424  .00000054  00000+0  00000+0 0  9994
2 38552   1.7044  47.1287 0001389 149.4359 303.4278  1.00272307 37735
METOP-B                 
1 38771U 12049A   22284.49663051  .00000191  00000+0  10754-3 0  9994
2 38771  98.7168 342.5583 0001662  79.4844  37.6865 14.21481281522217
FENGYUN 3C              
1 39260U 13052A   22284.51345261  .00000132  00000+0  87963-4 0  9998
2 39260  98.4484 306.7172 0010129 304.4759  55.5464 14.15949098468344
METEOR-M 2              
1 40069U 14037A   22284.52795835  .00000041  00000+0  38397-4 0  9994
2 40069  98.4307 297.0297 0005546 358.1178   1.9986 14.20721287428349
HIMAWARI-8              
1 40267U 14060A   22284.55384873 -.00000282  00000+0  00000+0 0  9992
2 40267   0.0212 164.8407 0001206  53.7278 141.6082  1.00272927 29381
FENGYUN 2G              
1 40367U 14090A   22284.53791193 -.00000307  00000+0  00000+0 0  9999
2 40367   2.2232  88.2531 0002830 198.9893  26.1870  1.00268682 28557
METEOSAT-11 (MSG-4)     
1 40732U 15034A   22283.85049390 -.00000012  00000+0  00000+0 0  9996
2 40732   0.5388  73.8329 0000557  69.6292 182.0241  1.00277325 26536
ELEKTRO-L 2             
1 41105U 15074A   22283.87299676 -.00000121  00000+0  00000+0 0  9992
2 41105   3.2719  86.7517 0002585 113.3186 119.2166  1.00272133 25026
HIMAWARI-9              
1 41836U 16064A   22284.55384875 -.00000281  00000+0  00000+0 0  9992
2 41836   0.0076 200.2785 0001226  36.6824 123.3098  1.00270439 21826
GOES 16                 
1 41866U 16071A   22283.59632632 -.00000258  00000+0  00000+0 0  9997
2 41866   0.0700 284.0336 0000728 314.5813 280.0613  1.00272382 21628
FENGYUN 4A              
1 41882U 16077A   22283.89669405 -.00000338  00000+0  00000+0 0  9991
2 41882   0.1946 285.5214 0003762 115.8238  45.5107  1.00265852 21495
CYGFM05                 
1 41884U 16078A   22283.18243384  .00007008  00000+0  34751-3 0  9994
2 41884  34.9559 207.0099 0013881  35.6660 324.4977 15.16962179322219
CYGFM04                 
1 41885U 16078B   22283.45691114  .00007046  00000+0  34414-3 0  9991
2 41885  34.9486 193.8799 0012106  56.8261 303.3611 15.17509628322307
CYGFM02                 
1 41886U 16078C   22283.44482302  .00006726  00000+0  32816-3 0  9996
2 41886  34.9580 196.2015 0012823  49.9574 310.2261 15.17548260322388
CYGFM01                 
1 41887U 16078D   22284.18641125  .00006478  00000+0  32302-3 0  9993
2 41887  34.9525 203.3299 0014206  44.2649 315.9197 15.16778470322433
CYGFM08                 
1 41888U 16078E   22283.47684111  .00007274  00000+0  35768-3 0  9991
2 41888  34.9492 199.8563 0013337  50.6829 309.5064 15.17251744322348
CYGFM06                 
1 41889U 16078F   22283.75290186  .00006923  00000+0  33763-3 0  9991
2 41889  34.9575 192.9385 0011793  52.8910 307.2878 15.17569652322377
CYGFM07                 
1 41890U 16078G   22283.80819815  .00007054  00000+0  34464-3 0  9990
2 41890  34.9511 191.4506 0011600  58.6251 301.5595 15.17502235322363
CYGFM03                 
1 41891U 16078H   22283.80687406  .00006981  00000+0  34113-3 0  9999
2 41891  34.9542 191.9601 0011102  56.0117 304.1649 15.17505374322354
FENGYUN 3D              
1 43010U 17072A   22284.53777385  .00000153  00000+0  94117-4 0  9992
2 43010  98.8250 228.6091 0001018 313.7390  46.3695 14.19229815254237
NOAA 20                 
1 43013U 17073A   22284.45228371  .00000126  00000+0  80341-4 0  9997
2 43013  98.7236 221.2216 0001664  85.0775 275.0591 14.19549513253688
GOES 17                 
1 43226U 18022A   22284.51123781  .00000091  00000+0  00000+0 0  9994
2 43226   0.0735 281.9686 0000426 291.8116 213.0216  1.00271212 16956
FENGYUN 2H              
1 43491U 18050A   22284.10687576 -.00000134  00000+0  00000+0 0  9990
2 43491   1.4365  94.8998 0003800  68.9245 333.4316  1.00272768 16029
METOP-C                 
1 43689U 18087A   22284.43987750  .00000182  00000+0  10313-3 0  9996
2 43689  98.7214 342.5124 0004148  70.8013 289.3613 14.21475073203786
GEO-KOMPSAT-2A          
1 43823U 18100A   22284.26017402 -.00000351  00000+0  00000+0 0  9998
2 43823   0.0497  47.8288 0001318 101.2225  92.7227  1.00271306 14177
METEOR-M2 2             
1 44387U 19038A   22284.53292080  .00000086  00000+0  57224-4 0  9991
2 44387  98.7369 244.4527 0000839 358.4227   1.6939 14.23724082169927
FENGYUN 3E              
1 49008U 21062A   22284.51512164  .00000055  00000+0  46498-4 0  9999
2 49008  98.7169 284.6689 0002404  40.3090 319.8266 14.19741396 65788
GOES 18                 
1 51850U 22021A   22284.58413260  .00000090  00000+0  00000+0 0  9990
2 51850   0.0451  43.5885 0002851 179.4711 230.4263  1.00273168  2325
